O3B FM5                 
1 39188U 13031A   26060.29913955 -.00000029  00000+0  00000+0 0  9994
2 39188   0.0971  14.9044 0003347 316.4761  28.5937  5.00116420231644
O3B FM4                 
1 39189U 13031B   26060.21839323 -.00000029  00000+0  00000+0 0  9993
2 39189   0.0557 345.2169 0005058   3.7212  11.0432  5.00115181231641
O3B FM2                 
1 39190U 13031C   26059.88430258 -.00000028  00000+0  00000+0 0  9999
2 39190   0.0569 339.1682 0002833 358.1956  22.6162  5.00115940231694
O3B PFM                 
1 39191U 13031D   26060.29819406 -.00000029  00000+0  00000+0 0  9994
2 39191   0.0662   7.9306 0005123 347.3173   4.7397  5.00116035231279
O3B FM3                 
1 40079U 14038A   26060.36481620 -.00000029  00000+0  00000+0 0  9990
2 40079   0.0531 353.4537 0000415  40.0543 326.4870  5.00115540207647
O3B FM7                 
1 40080U 14038B   26057.51243395 -.00000024  00000+0  00000+0 0  9995
2 40080   0.0590 349.0933 0004497 336.9388  33.9327  5.00115593212341
O3B FM6                 
1 40081U 14038C   26059.33845883 -.00000028  00000+0  00000+0 0  9992
2 40081   0.0550 351.2998 0002672 345.9055  22.7755  5.00115665212383
O3B FM8                 
1 40082U 14038D   26060.39123095 -.00000029  00000+0  00000+0 0  9996
2 40082   0.0559 350.6470 0002655 351.7743  17.5619  5.00115971212540
O3B FM10                
1 40348U 14083A   26060.21839308 -.00000029  00000+0  00000+0 0  9993
2 40348   0.0436 346.8438 0002682 352.2173  20.9203  5.00115167204492
O3B FM11                
1 40349U 14083B   26060.03122697 -.00000028  00000+0  00000+0 0  9999
2 40349   0.0564   0.5818 0003152 328.0774  31.3145  5.00115556204507
O3B FM12                
1 40350U 14083C   26060.25821573 -.00000029  00000+0  00000+0 0  9995
2 40350   0.0559 359.8251 0002646 335.5126  24.6421  5.00115916204529
O3B FM9                 
1 40351U 14083D   26060.28504443 -.00000028  00000+0  00000+0 0  9992
2 40351   0.0576   0.9338 0002739 337.8400  21.2073  5.00115869204671
LEO 1 (LEO VANTAGE 1)   
1 43113U 18004C   26060.24983515  .00004520  00000+0  31473-3 0  9997
2 43113  99.2488 324.4740 0353573  50.7245 312.4761 14.67088378421651
O3B FM15                
1 43231U 18024A   26060.35180598 -.00000029  00000+0  00000+0 0  9991
2 43231   0.0483   0.6252 0002711 334.9583  24.3962  5.00115613145638
O3B FM16                
1 43232U 18024B   26059.80451050 -.00000028  00000+0  00000+0 0  9993
2 43232   0.0446   2.3185 0002785 333.1821  24.4786  5.00115846145520
O3B FM14                
1 43233U 18024C   26060.24504333 -.00000028  00000+0  00000+0 0  9997
2 43233   0.0432   1.1934 0002846 339.2680  19.5202  5.00115611145554
O3B FM13                
1 43234U 18024D   26053.71450341 -.00000014  00000+0  00000+0 0  9996
2 43234   0.0534 327.5947 0005112 330.3943  61.9554  5.00115731145329
O3B FM20                
1 44112U 19020A   26060.47095445 -.00000029  00000+0  00000+0 0  9996
2 44112   0.0515 359.5720 0002824 328.9182  31.4854  5.00115422126177
O3B FM19                
1 44113U 19020B   26058.89895873 -.00000027  00000+0  00000+0 0  9991
2 44113   0.0602 347.5601 0004795 353.9797  18.4356  5.00116325125971
O3B FM17                
1 44114U 19020C   26060.37823956 -.00000029  00000+0  00000+0 0  9993
2 44114   0.0398 339.3013 0002696 355.6300  25.0481  5.00115420126123
O3B FM18                
1 44115U 19020D   26060.32453059 -.00000029  00000+0  00000+0 0  9992
2 44115   0.0518   0.0146 0002752 339.3814  20.5853  5.00115260126258
SALSAT                  
1 46495U 20068K   26060.48768708  .00011000  00000+0  40526-3 0  9997
2 46495  97.8843  57.1429 0008976 330.8256  29.2479 15.27983521298908
O3B MPOWER F1           
1 54755U 22174A   26058.53300325 -.00000026  00000+0  00000+0 0  9991
2 54755   0.0641 351.4493 0005158   3.4086 238.9684  5.00103025 59873
O3B MPOWER F2           
1 54756U 22174B   26048.35866194 -.00000015  00000+0  00000+0 0  9990
2 54756   0.0642 348.2682 0001560 220.5550 151.1634  5.00731386 59441
O3B MPOWER F4           
1 56367U 23059A   26048.24074746 -.00000015  00000+0  00000+0 0  9995
2 56367   0.0593   7.9241 0006460 334.3658  17.6828  5.00119607 52601
